#dP2023  2 24 12  0  0.00000000      96 __u+U ITR00 EXT  IAC
## 2250 475200.00000000   900.00000000 59999 0.5000000000000
+  119   C06C07C08C09C10C11C12C13C14C16C19C20C21C22C23C24C25
+        C26C27C28C29C30C32C33C34C35C36C37C38C39C40C41C42C43
+        C44C45C46E01E02E03E04E05E07E08E09E10E11E12E14E15E18
+        E19E21E24E25E26E27E30E31E33E34E36G01G02G03G04G05G06
+        G07G08G09G10G11G12G13G14G15G16G17G18G19G20G21G22G23
+        G24G25G26G27G28G29G30G31G32J02J03J04R01R02R03R04R05
+        R07R08R09R11R12R13R14R15R16R17R18R19R20R21R22R24R25
++        10  7 10  7  8 10  9  8  9 10  8  8  8  9  7  8 10
++         7  8  9  9  8  8 10  9  8  8  9  9  9  9  9  8  9
++         9  9  8  7  8  8  8  8 10 10 11  9  9  9  7  7  8
++         8  7  8  8  9  7  7  8  9  8  7  8  8  7  7  7  7
++         7  8  7  8  7  7  7  8  7  7  8  7  8  7  8  7  8
++         8  8  5  8  7  8  8  7  8  9  7 10  7  7  8  9  9
++         8  7  8  9  9  8  9  9  9 10  6 10  9  8  8  8  8
%c M  cc GPS ccc cccc cccc cccc cccc ccccc ccccc ccccc ccccc
%c cc cc ccc ccc cccc cccc cccc cccc ccccc ccccc ccccc ccccc
%f  0.0000000  0.000000000  0.00000000000  0.000000000000000
%f  0.0000000  0.000000000  0.00000000000  0.000000000000000
%i    0    0    0    0      0      0      0      0         0
%i    0    0    0    0      0      0      0      0         0
/* IAC                                ULTRA-RAPID PREDICTION
/* S/V CLOCKS ARE ALIGNED TO GNSS TIME                      
/* G:C1WC2W R:C1PC2P E:C1XC5X C:C2IC6I J:C1CC2S             
/* PCV:IGS20_2247 OL/AL:FES2004  NONE     YN ORB:CoN CLK:CoN
*  2023 02 25  9 30  0.00000000
PC06  -2025.384541  32174.219456 -27018.365844   -192.840195
PC07 -15165.188875  27292.824025  28306.689893     63.273811
PC08 -14703.944997  39305.163875  -4950.660135    523.853825
PC09   5036.519842  36218.415928 -20113.832843    816.566977
PC10  -6776.976196  27971.920762  30992.051543      3.697233
PC11   -739.342317 -19905.108547 -19470.220464   -100.968616
PC12  14807.409829  -6198.115144 -22787.487086    472.670319
PC13 -10129.163564  39817.600978  -9894.084809    216.058335
PC14   8655.166894 -16769.693846  20598.057949    520.880256
PC16  -3037.886564  30792.842092 -28288.357260    153.620854
PC19   2454.409859  15561.135063 -23003.248007   -894.701659
PC20 -16674.454195  15519.150944 -16083.537664    707.553850
PC21  27230.628371  -6056.360341  -1101.653991   -909.739639
PC22  21126.415364   6658.175805 -16984.150675   -615.046436
PC23 -11786.814309 -14006.641826 -21065.384385   -881.038667
PC24  13204.214852 -22915.418482   8842.307554   -366.716074
PC25   -402.516885 -26152.204853  -9711.161211     77.899351
PC26  17247.063034  -7948.964290  20417.742856    -83.716410
PC27 -20032.505064  -1635.786456  19347.727040    101.996627
PC28 -21540.359527 -16697.185874   6009.704484     74.449519
PC29  10672.220213  22570.025247  12455.390226     85.784836
PC30  -7434.211828  14685.744750  22524.823722      1.059631
PC32 -27180.028249   6182.622084   1229.203055   -613.227458
PC33  -2414.049033 -15625.419456  23004.668662   -871.735473
PC34   6291.221631 -15641.741448 -22252.097801    113.860117
PC35  21837.714663  16627.789249  -4920.847568    674.542155
PC36   -718.379190  26381.410542   9098.280750   -602.099759
PC37 -17397.605495   6035.043479 -20970.542435   -813.556825
PC38 -18614.947219  37716.297672   3879.135802     61.137568
PC39  -7704.011902  26271.867739 -31967.517262     -1.939865
PC40 -21141.975979  20863.356058  29814.187542    -16.016753
PC41 -20652.293678  -7060.965071  17443.289259   -653.744122
PC42  17796.954369 -15280.951374  15181.714754   -817.755677
PC43  -9888.844252 -22604.215307 -13073.094897      8.919956
PC44  20227.793676    938.838978 -19197.372531     26.321693
PC45  11873.728868  13596.562700  21279.471313    -64.879969
PC46 -12360.735597  23946.412371  -7339.344674    -35.842149
PE01  22127.645008  -2115.879740  19534.925448   -599.901479
PE02 -22343.273063   2563.280871 -19266.775994     22.895684
PE03 -28720.361847  -5671.112017  -4349.099229   -653.479986
PE04  20504.773151  -8170.777890  19729.679124    -65.873739
PE05 -20217.112450 -16510.402175  13965.818742    -91.985133
PE07   -113.467160  17506.377437 -23860.897747    -25.549298
PE08 -20588.548212   7985.064679 -19704.404140    -41.780896
PE09    275.072736 -17327.711130  23999.953189   -848.497638
PE10   6078.097531 -23155.459848 -17412.607339   -514.913136
PE11   -965.287640 -28384.652100  -8382.928906   1023.945803
PE12  11701.441149 -14873.780585 -22764.902489   -435.337786
PE14  -8105.030027  13343.129761  18532.281657    152.091353
PE15 -11792.973661  14494.125252  22962.768581     -3.510176
PE18  17162.520339 -13499.343480 -23267.695345   -350.245664
PE19  28550.569524   7587.755438   1823.511881  -3149.144707
PE21   9583.865251  13854.047513  24331.627813   -514.180905
PE24  10183.622753 -23360.484774 -15055.400499  -1133.453457
PE25  -9308.143583 -14089.423337 -24311.977090   -600.119090
PE26  12666.298007  24622.620300 -10447.431294     28.638009
PE27  -9423.614783  23285.296469  15664.967544   -520.771516
PE30 -23000.734699  18444.364322  -2771.634234  -1270.752993
PE31  22674.090495 -18900.511481   2133.072721   -516.981556
PE33  16966.533574   7561.051043 -23034.950100   -451.029884
PE34 -16985.007935  -7360.106562  23096.736165    -31.909002
PE36 -12280.846909 -25113.067833   9760.061140    -17.628519
PG01 -13719.403403   5120.965688  21813.126023    208.738088
PG02  12182.565086 -10142.943328 -20728.931955   -618.458181
PG03 -22442.641133  11659.384374   7797.561791   -358.675551
PG04 -21876.803373   2215.165403 -14969.283929    -19.920778
PG05  18347.362068   1526.999708 -19355.454367   -117.255699
PG06   5351.745242  25890.627875  -1851.499436    576.137564
PG07  -8225.696446  19168.901175 -15712.462511    234.421903
PG08 -25786.628457  -5937.143411   4014.203252   -110.174334
PG09 -12743.085601  10979.799982 -20638.671609   -211.701761
PG10   5197.515467 -19467.838559  17314.383332    -26.189782
PG11  12128.907556  18829.239973 -14291.461595   -113.785924
PG12  23189.434194  -8818.491732   9064.227287   -344.557877
PG13  22894.274397  13603.156449  -1576.539561    481.624777
PG14  -8323.769471  20099.908126  15151.828962    -18.704320
PG15  26198.541489   3024.671248   3753.609283     16.506334
PG16 -16771.078994  -5516.533279 -20279.658550   -518.449079
PG17   1173.167251  16336.067839  21322.377848    702.152209
PG18   5936.363637 -22079.600930 -13390.649519   -155.260805
PG19  12261.926705  17815.560139  15370.686448    282.366289
PG20  10815.627120  11161.139728 -21512.400085    448.557784
PG21 -16389.450652  -4394.501951  21195.632262    154.160066
PG22 -14980.357887 -17600.156106  13673.925447    434.027360
PG23  15195.652091 -20272.203302   7725.995400      7.719547
PG24  15813.521478   -849.247089  21002.975141    -88.288286
PG25  20395.441605 -16760.712040    450.974430    423.011196
PG26  -5927.209084 -15507.651464 -20786.838270    241.740559
PG27 -22387.706567 -13205.358646  -6688.895416     94.179149
PG28  -5239.272258 -26041.165307     97.297216     25.460199
PG29  16287.958585  -7151.071367 -19796.149546   -587.976069
PG30     97.984604  25864.350459  -5294.871203   -529.091954
PG31  -6603.887415 -25156.472399  -4163.939904   -210.172789
PG32  -5387.184503 -16886.311806  20010.424365   -406.662925
PJ02 -29977.069085  29701.592140   5104.687825     -1.008718
PJ03 -25549.172829  23534.348737  28990.680336      0.469193
PJ04 -32857.386982  23260.071575  -7660.412980     94.220686
PR01 -19443.218078   8507.651185 -14136.767116     23.680970
PR02  -1326.718034  10871.355093 -22992.089527    -23.231026
PR03  16934.646192   7252.615728 -17564.347779     73.118667
PR04  25369.522849   -233.012860  -2547.034594    177.145656
PR05  20027.647570  -7538.830863  13878.301079    108.324394
PR07 -17639.960036  -7010.757916  17109.923843     50.612775
PR08 -25404.565768    372.956276   2507.029104    -69.608396
PR09   5600.107450 -23089.099171  -9373.125053    106.017058
PR11 -13063.753060   3561.331025 -21609.386658     -9.374447
PR12 -14005.505331  19656.262148  -8268.138768     25.247135
PR13  -6925.508168  23288.365825   7756.705339    -32.402197
PR14   5333.164925  12850.819448  21380.325738     24.368040
PR15  13550.348466  -4543.643524  21140.276472     90.829904
PR16  13883.725718 -19588.228175   8659.361652     11.685796
PR17  15239.409270  20134.055086  -3717.656073    607.880415
PR18  15442.774309   8899.262820 -18203.765914     68.566005
PR19   8784.563062  -5464.146228 -23313.441231   -223.170611
PR20  -5123.787323 -20642.916562 -14108.848261    -88.327171
PR21 -15529.875368 -19477.491301   5448.911847   -375.983691
PR22 -15251.644631  -8531.137073  18618.236818     72.440286
PR24   5934.239120  20827.334142  13503.110787    149.355184
PR25 -14218.018052 -20890.992220   3431.596772     56.084551
EOF
